{"fetched_at":"2026-03-29T16:36:15Z","count":15609,"tles":[{"name":"STARLINK-3536","line1":"1 51888U 22022AN  26087.77710856  .00000457  00000+0  46813-4 0  9993","line2":"2 51888  53.2168 273.4372 0001439  93.4213 266.6944 15.08844719226132","category":"Starlink"}]}